{"type":"FeatureCollection","features":[{"type":"Feature","properties":{"brgy_name":"Abuno","source_name":"Abuno"},"geometry":{"type":"Polygon","coordinates":[[[124.24324483800001,8.193815753000024],[124.2642753880001,8.18553961200007],[124.256516583,8.179255839000064],[124.25941038200006,8.166753017000076],[124.23508590500012,8.164528030000042],[124.24324483800001,8.193815753000024]]]}},{"type":"Feature","properties":{"brgy_name":"Bonbonon","source_name":"Bonbonon"},"geometry":{"type":"Polygon","coordinates":[[[124.31001828300009,8.274552070000027],[124.30239933500002,8.252544073000024],[124.27936698300005,8.259177757000032],[124.28321861100005,8.275389455000038],[124.31001828300009,8.274552070000027]]]}},{"type":"Feature","properties":{"brgy_name":"Bunawan","source_name":"Bunawan"},"geometry":{"type":"Polygon","coordinates":[[[124.28430104000006,8.329899082000054],[124.30343307400005,8.311831809000068],[124.32793174200003,8.327967434000072],[124.33881046200008,8.305454436000048],[124.30660885300006,8.289555674000042],[124.3022160160001,8.299082893000048],[124.29035208700009,8.30013944500007],[124.28430104000006,8.329899082000054]]]}},{"type":"Feature","properties":{"brgy_name":"Buru-un","source_name":"Buru-un"},"geometry":{"type":"Polygon","coordinates":[[[124.18523398700006,8.198362046000057],[124.192814999,8.185033019000059],[124.17810106700006,8.162945730000047],[124.16557686600004,8.184167351000042],[124.18523398700006,8.198362046000057]]]}},{"type":"Feature","properties":{"brgy_name":"Dalipuga","source_name":"Dalipuga"},"geometry":{"type":"Polygon","coordinates":[[[124.24818182700005,8.331710189000034],[124.28430104000006,8.329899082000054],[124.29035208700009,8.30013944500007],[124.25717970700009,8.288034130000028],[124.24818182700005,8.331710189000034]]]}},{"type":"Feature","properties":{"brgy_name":"Digkilaan","source_name":"Digkilaan"},"geometry":{"type":"Polygon","coordinates":[[[124.34844698500001,8.291475926000032],[124.38570513000002,8.266605049000077],[124.36103577600011,8.23196628200003],[124.30251323100003,8.252012763000039],[124.31263676800006,8.27643880000005],[124.34844698500001,8.291475926000032]]]}},{"type":"Feature","properties":{"brgy_name":"Hinaplanon","source_name":"Hinaplanon"},"geometry":{"type":"Polygon","coordinates":[[[124.2508325660001,8.26583521300006],[124.25314678100005,8.255235284000037],[124.26877151200006,8.251977962000069],[124.26197619900006,8.241211627000041],[124.24455652100005,8.254894335000074],[124.2508325660001,8.26583521300006]]]}},{"type":"Feature","properties":{"brgy_name":"Kabacsanan","source_name":"Kabacsanan"},"geometry":{"type":"Polygon","coordinates":[[[124.33925065800008,8.30751775400006],[124.34844698500001,8.291475926000032],[124.31001828300009,8.274552070000027],[124.28321861100005,8.275389455000038],[124.27925406600002,8.265235268000026],[124.26549037900008,8.269554121000056],[124.27675958600003,8.286456484000041],[124.30361324600005,8.28153710500004],[124.30665431600005,8.29042714700006],[124.33925065800008,8.30751775400006]]]}},{"type":"Feature","properties":{"brgy_name":"Kiwalan","source_name":"Kiwalan"},"geometry":{"type":"Polygon","coordinates":[[[124.26242623900009,8.290154530000052],[124.3022160160001,8.299082893000048],[124.30430252000008,8.281937885000048],[124.27675958600003,8.286456484000041],[124.27666875700004,8.278222842000048],[124.2647151330001,8.278482903000054],[124.26242623900009,8.290154530000052]]]}},{"type":"Feature","properties":{"brgy_name":"Mahayahay","source_name":"Mahayahay"},"geometry":{"type":"Polygon","coordinates":[[[124.23781002700002,8.22636723200003],[124.24184552200006,8.219565924000051],[124.23737894300007,8.22048766100005],[124.23781002700002,8.22636723200003]]]}},{"type":"Feature","properties":{"brgy_name":"Mainit","source_name":"Mainit"},"geometry":{"type":"Polygon","coordinates":[[[124.42582695800002,8.318377792000035],[124.38570513000002,8.266605049000077],[124.34844698500001,8.291475926000032],[124.37971581200009,8.318074466000041],[124.42582695800002,8.318377792000035]]]}},{"type":"Feature","properties":{"brgy_name":"Mandulog","source_name":"Mandulog"},"geometry":{"type":"Polygon","coordinates":[[[124.29064559300002,8.256320672000072],[124.33065502700003,8.244976544000053],[124.32865460900007,8.226077495000027],[124.28208422600005,8.237616951000064],[124.2762569350001,8.248895694000055],[124.29064559300002,8.256320672000072]]]}},{"type":"Feature","properties":{"brgy_name":"Maria Cristina","source_name":"Maria Cristina"},"geometry":{"type":"Polygon","coordinates":[[[124.20279121700003,8.210534324000037],[124.2103747860001,8.184443438000073],[124.20131229800006,8.178844249000065],[124.18905158200005,8.19566898100004],[124.20279121700003,8.210534324000037]]]}},{"type":"Feature","properties":{"brgy_name":"Palao","source_name":"Palao"},"geometry":{"type":"Polygon","coordinates":[[[124.250253831,8.237798835000035],[124.26262075000011,8.229858939000053],[124.26377213700005,8.222852489000047],[124.240240416,8.227039036000065],[124.250253831,8.237798835000035]]]}},{"type":"Feature","properties":{"brgy_name":"Poblacion","source_name":"Poblacion"},"geometry":{"type":"Polygon","coordinates":[[[124.23291012300001,8.228183305000073],[124.24088612100002,8.231280063000042],[124.24006630800011,8.225952250000034],[124.23291012300001,8.228183305000073]]]}},{"type":"Feature","properties":{"brgy_name":"Puga-an","source_name":"Puga-an"},"geometry":{"type":"Polygon","coordinates":[[[124.28208422600005,8.237616951000064],[124.30957375000003,8.208096682000075],[124.31231214800005,8.175383269000065],[124.30418100700001,8.16776143800007],[124.26276892800001,8.203518299000052],[124.26262075000011,8.229858939000053],[124.28208422600005,8.237616951000064]]]}},{"type":"Feature","properties":{"brgy_name":"Rogongon","source_name":"Rogongon"},"geometry":{"type":"Polygon","coordinates":[[[124.46083723900006,8.326615704000062],[124.50703357400005,8.239915808000035],[124.52011239600006,8.172480796000059],[124.53569715600008,8.160570492000033],[124.56610644400007,8.160823902000061],[124.55825191100007,8.146058806000042],[124.49892875400008,8.144089777000033],[124.48426424600007,8.154716393000058],[124.48386590300004,8.175547519000077],[124.46903974400004,8.187627144000032],[124.44896609900002,8.18321637400004],[124.43453407000004,8.19448236200003],[124.4008960540001,8.192537431000062],[124.40122856900007,8.201657882000063],[124.4098260930001,8.20498331300007],[124.39382560500007,8.208842718000028],[124.39064819500004,8.216086655000026],[124.39769311100008,8.216346031000057],[124.37911853100002,8.224796423000043],[124.3845417340001,8.230043697000042],[124.37954764200003,8.237522635000062],[124.3760862040001,8.231080258000077],[124.36233656800005,8.236104002000047],[124.41470990800008,8.310731972000042],[124.46083723900006,8.326615704000062]]]}},{"type":"Feature","properties":{"brgy_name":"Santa Elena","source_name":"Santa Elena"},"geometry":{"type":"Polygon","coordinates":[[[124.22858757100005,8.200568326000052],[124.24212288900003,8.193145798000046],[124.23437547900005,8.178605331000028],[124.2210500330001,8.188088091000054],[124.22858757100005,8.200568326000052]]]}},{"type":"Feature","properties":{"brgy_name":"Santa Filomena","source_name":"Santa Filomena"},"geometry":{"type":"Polygon","coordinates":[[[124.26091808700005,8.273277232000055],[124.272322,8.265285014000028],[124.25697927700003,8.25399215300007],[124.252458122,8.265471878000028],[124.26091808700005,8.273277232000055]]]}},{"type":"Feature","properties":{"brgy_name":"Suarez","source_name":"Suarez"},"geometry":{"type":"Polygon","coordinates":[[[124.21490975100005,8.212410789000046],[124.22498878800002,8.199190540000075],[124.21459451800001,8.17330783400007],[124.20730263100006,8.179471532000036],[124.20338114300012,8.209963552000033],[124.21490975100005,8.212410789000046]]]}},{"type":"Feature","properties":{"brgy_name":"Tambacan","source_name":"Tambacan"},"geometry":{"type":"Polygon","coordinates":[[[124.23228182200012,8.226617417000057],[124.2380779560001,8.22014592100004],[124.23172231400008,8.21852063700004],[124.23228182200012,8.226617417000057]]]}},{"type":"Feature","properties":{"brgy_name":"Saray","source_name":"Saray (Saray-Tibanga)"},"geometry":{"type":"Polygon","coordinates":[[[124.23363705700001,8.23512372700003],[124.24411985000006,8.234572573000037],[124.23219123900003,8.232313060000024],[124.23363705700001,8.23512372700003]]]}},{"type":"Feature","properties":{"brgy_name":"Tipanoy","source_name":"Tipanoy"},"geometry":{"type":"Polygon","coordinates":[[[124.23743362000005,8.202800273000037],[124.26276892800001,8.203518299000052],[124.26758936600004,8.19285033400007],[124.27454708000005,8.195832494000058],[124.2831254460001,8.179471723000063],[124.294062058,8.18175861900005],[124.30418100700001,8.16776143800007],[124.29832977500007,8.162335527000039],[124.27509865700006,8.16962981100005],[124.25905567300003,8.190474643000073],[124.24068685700001,8.193536135000045],[124.23743362000005,8.202800273000037]]]}},{"type":"Feature","properties":{"brgy_name":"Tomas L. Cabili","source_name":"Tomas L. Cabili (Tominobo Proper)"},"geometry":{"type":"Polygon","coordinates":[[[124.22658414000011,8.21575701100005],[124.23163396100006,8.212413114000071],[124.2382385630001,8.198045629000035],[124.2190942950001,8.20621396000007],[124.22658414000011,8.21575701100005]]]}},{"type":"Feature","properties":{"brgy_name":"Upper Tominobo","source_name":"Upper Tominobo"},"geometry":{"type":"Polygon","coordinates":[[[124.22407462000001,8.186152476000075],[124.24399060300004,8.154720283000074],[124.22606196700008,8.14891915000004],[124.22590749100004,8.159164347000058],[124.2150975510001,8.165818276000039],[124.22407462000001,8.186152476000075]]]}},{"type":"Feature","properties":{"brgy_name":"Tubod","source_name":"Tubod"},"geometry":{"type":"Polygon","coordinates":[[[124.24649618500007,8.222327767000024],[124.24906482900008,8.208132729000056],[124.23284967100005,8.20215240500005],[124.22668352900007,8.215729432000046],[124.24649618500007,8.222327767000024]]]}},{"type":"Feature","properties":{"brgy_name":"Bagong Silang","source_name":"Bagong Silang"},"geometry":{"type":"Polygon","coordinates":[[[124.252015432,8.235687208000058],[124.25433150800006,8.241494613000043],[124.26000259200009,8.241180564000047],[124.252015432,8.235687208000058]]]}},{"type":"Feature","properties":{"brgy_name":"Del Carmen","source_name":"Del Carmen"},"geometry":{"type":"Polygon","coordinates":[[[124.26270241400005,8.241541404000031],[124.26982557600002,8.235871509000049],[124.25624422600004,8.228467058000035],[124.252015432,8.235687208000058],[124.26270241400005,8.241541404000031]]]}},{"type":"Feature","properties":{"brgy_name":"Dulag","source_name":"Dulag"},"geometry":{"type":"Polygon","coordinates":[[[124.37954764200003,8.237522635000062],[124.3845417340001,8.230043697000042],[124.37911853100002,8.224796423000043],[124.39773553900011,8.214950196000075],[124.34731069000009,8.193709349000073],[124.36233656800005,8.236104002000047],[124.3760862040001,8.231080258000077],[124.37954764200003,8.237522635000062]]]}},{"type":"Feature","properties":{"brgy_name":"San Miguel","source_name":"San Miguel"},"geometry":{"type":"Polygon","coordinates":[[[124.24605720400007,8.24107351400005],[124.24742261600011,8.23358102100002],[124.24268321400007,8.23488756200004],[124.24605720400007,8.24107351400005]]]}},{"type":"Feature","properties":{"brgy_name":"Santiago","source_name":"Santiago"},"geometry":{"type":"Polygon","coordinates":[[[124.248253868,8.25508463400007],[124.25211312600004,8.249881954000045],[124.24800403200004,8.241854147000026],[124.24200260200007,8.244666118000055],[124.248253868,8.25508463400007]]]}},{"type":"Feature","properties":{"brgy_name":"Santo Rosario","source_name":"Santo Rosario"},"geometry":{"type":"Polygon","coordinates":[[[124.2487789920001,8.24326725800006],[124.25549379000006,8.245830494000074],[124.25592671200002,8.24204147100005],[124.2487789920001,8.24326725800006]]]}},{"type":"Feature","properties":{"brgy_name":"Tibanga","source_name":"Tibanga"},"geometry":{"type":"Polygon","coordinates":[[[124.24204421400009,8.244636366000066],[124.24800403200004,8.241854147000026],[124.24268321400007,8.23488756200004],[124.23813000500002,8.237336597000024],[124.24204421400009,8.244636366000066]]]}},{"type":"Feature","properties":{"brgy_name":"Acmac-Mariano Badelles Sr.","source_name":"Acmac-Mariano Badelles Sr."},"geometry":{"type":"Polygon","coordinates":[[[124.27233896500002,8.280659644000025],[124.26695273100006,8.27004187600005],[124.26092925400008,8.273011401000076],[124.26420494700005,8.279070139000055],[124.27233896500002,8.280659644000025]]]}},{"type":"Feature","properties":{"brgy_name":"Ditucalan","source_name":"Ditucalan"},"geometry":{"type":"Polygon","coordinates":[[[124.19286027500004,8.184932168000046],[124.20304731400006,8.156119083000021],[124.19883911400007,8.150752040000043],[124.17918949000011,8.163183183000058],[124.19286027500004,8.184932168000046]]]}},{"type":"Feature","properties":{"brgy_name":"Hindang","source_name":"Hindang"},"geometry":{"type":"Polygon","coordinates":[[[124.32623931400008,8.323899039000025],[124.36637374500003,8.314602319000073],[124.37971581200009,8.318074466000041],[124.34844698500001,8.291475926000032],[124.32623931400008,8.323899039000025]]]}},{"type":"Feature","properties":{"brgy_name":"Kalilangan","source_name":"Kalilangan"},"geometry":{"type":"Polygon","coordinates":[[[124.39271551700006,8.210330354000064],[124.40994744700004,8.204819746000055],[124.40001778700002,8.19950929600003],[124.4129619250001,8.189305711000031],[124.41216586400003,8.13836305700005],[124.39575697900011,8.153384322000022],[124.36887539100007,8.156649365000021],[124.35443836400009,8.191247092000026],[124.39271551700006,8.210330354000064]]]}},{"type":"Feature","properties":{"brgy_name":"Lanipao","source_name":"Lanipao"},"geometry":{"type":"Polygon","coordinates":[[[124.33674115100007,8.243989355000053],[124.36006093800006,8.234174409000047],[124.34799646400006,8.208051595000029],[124.34570117600003,8.21830312800006],[124.32881057300006,8.225207304000037],[124.33674115100007,8.243989355000053]]]}},{"type":"Feature","properties":{"brgy_name":"Luinab","source_name":"Luinab"},"geometry":{"type":"Polygon","coordinates":[[[124.26915164500008,8.252439752000043],[124.27972440600001,8.24635554400004],[124.28208425500009,8.237617023000041],[124.26246008500004,8.241678663000073],[124.26915164500008,8.252439752000043]]]}},{"type":"Feature","properties":{"brgy_name":"Panoroganan","source_name":"Panoroganan"},"geometry":{"type":"Polygon","coordinates":[[[124.40916000400011,8.196091577000061],[124.43453407000004,8.19448236200003],[124.44896609900002,8.18321637400004],[124.46903974400004,8.187627144000032],[124.48245009200002,8.178286326000034],[124.48231018100012,8.164001187000054],[124.45554609600003,8.132936867000069],[124.43501488000004,8.128414759000066],[124.41393203700011,8.137323493000054],[124.40916000400011,8.196091577000061]]]}},{"type":"Feature","properties":{"brgy_name":"San Roque","source_name":"San Roque"},"geometry":{"type":"Polygon","coordinates":[[[124.25663149400009,8.258356736000053],[124.28237254700002,8.26199338300006],[124.27438196000003,8.257714312000076],[124.25663149400009,8.258356736000053]]]}},{"type":"Feature","properties":{"brgy_name":"Ubaldo Laya","source_name":"Ubaldo Laya"},"geometry":{"type":"Polygon","coordinates":[[[124.2452876970001,8.226077030000056],[124.26083174100006,8.219610688000046],[124.26276892800001,8.203518299000052],[124.24708356300005,8.208539063000046],[124.2452876970001,8.226077030000056]]]}},{"type":"Feature","properties":{"brgy_name":"Upper Hinaplanon","source_name":"Upper Hinaplanon"},"geometry":{"type":"Polygon","coordinates":[[[124.27924865300008,8.259616532000052],[124.28500286700012,8.253868400000044],[124.2762569350001,8.248895694000055],[124.26423469500003,8.253668030000028],[124.27924865300008,8.259616532000052]]]}},{"type":"Feature","properties":{"brgy_name":"Villa Verde","source_name":"Villa Verde"},"geometry":{"type":"Polygon","coordinates":[[[124.24539132500001,8.234720153000069],[124.2452888570001,8.227995989000021],[124.24046612000006,8.22862363300004],[124.24088612100002,8.231280063000042],[124.24539132500001,8.234720153000069]]]}}]}